GUOWANG OBJECT H        
1 69579U 26137H   26174.83390860  .00000014  00000+0  12465-3 0  9997
2 69579  49.9988 228.8698 0010138 253.8068 106.1716 13.92228504   955
GUOWANG OBJECT J        
1 69580U 26137J   26174.83323464  .00000006  00000+0  11839-3 0  9990
2 69580  49.9969 228.8612 0009557 250.1334 109.8536 13.92366636   950
CENTISPACE-1 GROUP 05 O*
1 69582U 26138A   26174.92069522 -.00000408  00000+0 -12993-3 0  9995
2 69582  55.1425 256.2954 0009960 293.8658  66.1272 14.15476806   974
CENTISPACE-1 GROUP 05 O*
1 69583U 26138B   26175.90836225 -.00000309  00000+0 -78957-4 0  9990
2 69583  55.1421 252.6381 0008977 295.8369  64.1679 14.15657964  1115
CENTISPACE-1 GROUP 05 O*
1 69584U 26138C   26174.63699858 -.00000261  00000+0 -54278-4 0  9996
2 69584  55.1427 257.3373 0008856 294.0351  65.9696 14.15756484   937
CENTISPACE-1 GROUP 05 O*
1 69585U 26138D   26175.90707264 -.00000304  00000+0 -76088-4 0  9990
2 69585  55.1426 252.6297 0008465 296.4001  63.6105 14.15929192  1113
CENTISPACE-1 GROUP 05 O*
1 69586U 26138E   26174.91840715 -.00000222  00000+0 -34731-4 0  9998
2 69586  55.1425 256.2867 0008161 294.1862  65.8259 14.15995419   971
CENTISPACE-1 GROUP 05 O*
1 69587U 26138F   26175.90695834 -.00000269  00000+0 -58213-4 0  9991
2 69587  55.1426 252.6376 0008021 301.3279  58.6909 14.15918616  1119
CENTISPACE-1 GROUP 05 O*
1 69588U 26138G   26175.90604060 -.00000258  00000+0 -52810-4 0  9998
2 69588  55.1425 252.6297 0007314 300.5674  59.4578 14.16082835  1112
SPACEMOBILE-008         
1 69589U 26139A   26174.88076685  .00000116  00000+0  23646-4 0  9998
2 69589  52.9941 232.1889 0003819 343.5370  16.5496 15.12500309  1006
SPACEMOBILE-009         
1 69590U 26139B   26174.88003419  .00000079  00000+0  21433-4 0  9995
2 69590  52.9922 232.1823 0003949 354.6009   5.4939 15.12668874   999
SPACEMOBILE-010         
1 69591U 26139C   26175.87194747  .00000326  00000+0  35552-4 0  9993
2 69591  52.9940 227.6908 0003881 346.9196  13.1694 15.12501760  1152
KUIPER-00423            
1 69592U 26140A   26176.16667823 -.00821559  00000+0 -21911-1 0  9991
2 69592  51.8822   0.0392 0014337 195.5307 118.2554 15.40179487  1307
KUIPER-00428            
1 69593U 26140B   26176.16667823 -.00012644  00000+0 -33913-3 0  9996
2 69593  51.8810   0.2244 0006933 321.6447 261.9279 15.36492519  2392
KUIPER-00481            
1 69594U 26140C   26176.16667823 -.00819165  00000+0 -22327-1 0  9995
2 69594  51.8797   0.0728 0012023 202.8262  94.2058 15.39564355  1891
KUIPER-00490            
1 69595U 26140D   26176.16667823 -.00012439  00000+0 -32270-3 0  9995
2 69595  51.8785   0.1677 0006085 256.6972 352.4727 15.37501928  2370
KUIPER-00493            
1 69596U 26140E   26176.16667823 -.00012082  00000+0 -32660-3 0  9993
2 69596  51.8809   0.2444 0006276 331.3290 242.3607 15.36210199  1860
KUIPER-00496            
1 69597U 26140F   26176.16667823 -.00007672  00000+0 -20880-3 0  9994
2 69597  51.8796   0.2583 0008491 338.6473 226.6528 15.35369817  2403
KUIPER-00513            
1 69598U 26140G   26176.16667823 -.00009454  00000+0 -24149-3 0  9997
2 69598  51.8817   0.1641 0006196 254.6405 358.4402 15.37644255  2245
KUIPER-00516            
1 69599U 26140H   26176.16667823 -.00012513  00000+0 -32729-3 0  9991
2 69599  51.8796   0.1804 0005943 272.8179 330.7268 15.37259386  2398
KUIPER-00517            
1 69600U 26140J   26176.16667823 -.00008004  00000+0 -19575-3 0  9998
2 69600  51.8784   0.1025 0010207 215.1810  66.5734 15.38659225  1954
KUIPER-00520            
1 69601U 26140K   26176.16667823 -.00012559  00000+0 -33008-3 0  9996
2 69601  51.8824   0.1949 0005586 277.0794 321.7835 15.37120349  2326
KUIPER-00522            
1 69602U 26140L   26176.16667823 -.00822030  00000+0 -21893-1 0  9997
2 69602  51.8801   0.0357 0014349 192.1516 123.3090 15.40222652  1894
KUIPER-00528            
1 69603U 26140M   26176.16667823 -.00012583  00000+0 -33241-3 0  9994
2 69603  51.8795   0.1983 0004523 283.0360 311.7049 15.36972661  1303
KUIPER-00532            
1 69604U 26140N   26176.16667823 -.00013672  00000+0 -36766-3 0  9990
2 69604  51.8795   0.2219 0004843 315.5357 267.5657 15.36508900  2393
KUIPER-00533            
1 69605U 26140P   26176.16667823 -.00007969  00000+0 -20011-3 0  9999
2 69605  51.8795   0.1411 0007648 242.2292  20.7457 15.37891555  1878
KUIPER-00534            
1 69606U 26140Q   26176.16667823 -.00000954  00000+0 -13255-4 0  9990
2 69606  51.8828   0.0267 0014813 189.4751 130.1411 15.40040250  2158
KUIPER-00537            
1 69607U 26140R   26176.16667823 -.00011918  00000+0 -32664-3 0  9997
2 69607  51.8813   0.2615 0008068 343.2857 222.9250 15.35756076  2137
KUIPER-00538            
1 69608U 26140S   26176.16667823 -.00007013  00000+0 -17831-3 0  9998
2 69608  51.8817   0.1799 0005587 259.1020 346.3266 15.37318144  2370
