OBJECT_NAME,OBJECT_ID,EPOCH,MEAN_MOTION,ECCENTRICITY,INCLINATION,RA_OF_ASC_NODE,ARG_OF_PERICENTER,MEAN_ANOMALY,EPHEMERIS_TYPE,CLASSIFICATION_TYPE,NORAD_CAT_ID,ELEMENT_SET_NO,REV_AT_EPOCH,BSTAR,MEAN_MOTION_DOT,MEAN_MOTION_DDOT
GUOWANG OBJECT H,2026-137H,2026-06-23T20:00:49.703040,13.92228504,.00101386,49.9988,228.8698,253.8068,106.1716,0,U,69579,999,95,.12464882E-3,.14E-6,0
GUOWANG OBJECT J,2026-137J,2026-06-23T19:59:51.472896,13.92366636,.00095572,49.9969,228.8612,250.1334,109.8536,0,U,69580,999,95,.11838718E-3,.6E-7,0
CENTISPACE-1 GROUP 05 OBJECT A,2026-138A,2026-06-23T22:05:48.067008,14.15476806,.00099607,55.1425,256.2954,293.8658,66.1272,0,U,69582,999,97,-.12992779E-3,-.408E-5,0
CENTISPACE-1 GROUP 05 OBJECT B,2026-138B,2026-06-24T21:48:02.498400,14.15657964,.0008977,55.1421,252.6381,295.8369,64.1679,0,U,69583,999,111,-.78957E-4,-.309E-5,0
CENTISPACE-1 GROUP 05 OBJECT C,2026-138C,2026-06-23T15:17:16.677312,14.15756484,.00088561,55.1427,257.3373,294.0351,65.9696,0,U,69584,999,93,-.54277939E-4,-.261E-5,0
CENTISPACE-1 GROUP 05 OBJECT D,2026-138D,2026-06-24T21:46:11.076096,14.15929192,.0008465,55.1426,252.6297,296.4001,63.6105,0,U,69585,999,111,-.76088E-4,-.304E-5,0
CENTISPACE-1 GROUP 05 OBJECT E,2026-138E,2026-06-23T22:02:30.377760,14.15995419,.00081611,55.1425,256.2867,294.1862,65.8259,0,U,69586,999,97,-.34730818E-4,-.222E-5,0
CENTISPACE-1 GROUP 05 OBJECT F,2026-138F,2026-06-24T21:46:01.200576,14.15918616,.0008021,55.1426,252.6376,301.3279,58.6909,0,U,69587,999,111,-.58213E-4,-.269E-5,0
CENTISPACE-1 GROUP 05 OBJECT G,2026-138G,2026-06-24T21:44:41.907840,14.16082835,.0007314,55.1425,252.6297,300.5674,59.4578,0,U,69588,999,111,-.5281E-4,-.258E-5,0
SPACEMOBILE-008,2026-139A,2026-06-23T21:08:18.255840,15.12500309,.00038192,52.9941,232.1889,343.5370,16.5496,0,U,69589,999,100,.23646171E-4,.116E-5,0
SPACEMOBILE-009,2026-139B,2026-06-23T21:07:14.954016,15.12668874,.00039499,52.9922,232.1823,354.6009,5.4939,0,U,69590,999,99,.21433128E-4,.79E-6,0
SPACEMOBILE-010,2026-139C,2026-06-24T20:55:36.261408,15.12501760,.0003881,52.9940,227.6908,346.9196,13.1694,0,U,69591,999,115,.35552E-4,.326E-5,0
KUIPER-00423,2026-140A,2026-06-25T04:00:00.999072,15.40179487,.0014337,51.8822,0.0392,195.5307,118.2554,0,U,69592,999,130,-.21911E-1,-.821559E-2,0
KUIPER-00428,2026-140B,2026-06-25T04:00:00.999072,15.36492519,.0006933,51.8810,0.2244,321.6447,261.9279,0,U,69593,999,239,-.33913E-3,-.12644E-3,0
KUIPER-00481,2026-140C,2026-06-25T04:00:00.999072,15.39564355,.0012023,51.8797,0.0728,202.8262,94.2058,0,U,69594,999,189,-.22327E-1,-.819165E-2,0
KUIPER-00490,2026-140D,2026-06-25T04:00:00.999072,15.37501928,.0006085,51.8785,0.1677,256.6972,352.4727,0,U,69595,999,237,-.3227E-3,-.12439E-3,0
KUIPER-00493,2026-140E,2026-06-25T04:00:00.999072,15.36210199,.0006276,51.8809,0.2444,331.3290,242.3607,0,U,69596,999,186,-.3266E-3,-.12082E-3,0
KUIPER-00496,2026-140F,2026-06-25T04:00:00.999072,15.35369817,.0008491,51.8796,0.2583,338.6473,226.6528,0,U,69597,999,240,-.2088E-3,-.7672E-4,0
KUIPER-00513,2026-140G,2026-06-25T04:00:00.999072,15.37644255,.0006196,51.8817,0.1641,254.6405,358.4402,0,U,69598,999,224,-.24149E-3,-.9454E-4,0
KUIPER-00516,2026-140H,2026-06-25T04:00:00.999072,15.37259386,.0005943,51.8796,0.1804,272.8179,330.7268,0,U,69599,999,239,-.32729E-3,-.12513E-3,0
KUIPER-00517,2026-140J,2026-06-25T04:00:00.999072,15.38659225,.0010207,51.8784,0.1025,215.1810,66.5734,0,U,69600,999,195,-.19575E-3,-.8004E-4,0
KUIPER-00520,2026-140K,2026-06-25T04:00:00.999072,15.37120349,.0005586,51.8824,0.1949,277.0794,321.7835,0,U,69601,999,232,-.33008E-3,-.12559E-3,0
KUIPER-00522,2026-140L,2026-06-25T04:00:00.999072,15.40222652,.0014349,51.8801,0.0357,192.1516,123.3090,0,U,69602,999,189,-.21893E-1,-.82203E-2,0
KUIPER-00528,2026-140M,2026-06-25T04:00:00.999072,15.36972661,.0004523,51.8795,0.1983,283.0360,311.7049,0,U,69603,999,130,-.33241E-3,-.12583E-3,0
KUIPER-00532,2026-140N,2026-06-25T04:00:00.999072,15.36508900,.0004843,51.8795,0.2219,315.5357,267.5657,0,U,69604,999,239,-.36766E-3,-.13672E-3,0
KUIPER-00533,2026-140P,2026-06-25T04:00:00.999072,15.37891555,.0007648,51.8795,0.1411,242.2292,20.7457,0,U,69605,999,187,-.20011E-3,-.7969E-4,0
KUIPER-00534,2026-140Q,2026-06-25T04:00:00.999072,15.40040250,.0014813,51.8828,0.0267,189.4751,130.1411,0,U,69606,999,215,-.13255E-4,-.954E-5,0
KUIPER-00537,2026-140R,2026-06-25T04:00:00.999072,15.35756076,.0008068,51.8813,0.2615,343.2857,222.9250,0,U,69607,999,213,-.32664E-3,-.11918E-3,0
KUIPER-00538,2026-140S,2026-06-25T04:00:00.999072,15.37318144,.0005587,51.8817,0.1799,259.1020,346.3266,0,U,69608,999,237,-.17831E-3,-.7013E-4,0
